STARLINK-35624          
1 66166U 25240W   26181.92757769  .00032705  00000+0  97473-3 0  9997
2 66166  53.1593 254.8415 0001509  78.1837 281.9335 15.34404367 39359
STARLINK-35641          
1 66167U 25240X   26181.62505458  .00024453  00000+0  73216-3 0  9991
2 66167  53.1571 256.5097 0001301  73.4510 286.6635 15.34413955 39300
STARLINK-35578          
1 66168U 25240Y   26179.95060696  .00188717  00000+0  61535-2 0  9999
2 66168  53.1592 265.9583 0002648 157.1984 202.9135 15.30567110 39022
STARLINK-35638          
1 66169U 25240Z   26182.16670139  .00074878  00000+0  22071-2 0  9990
2 66169  53.1584 255.7875 0001473  96.3200 177.1079 15.34373847  5855
STARLINK-35585          
1 66170U 25240AA  26181.49897579  .00026103  00000+0  78116-3 0  9996
2 66170  53.1572 257.1451 0001028  77.4492 282.6626 15.34393269 39283
STARLINK-35606          
1 66171U 25240AB  26181.92968005  .00036435  00000+0  10838-2 0  9993
2 66171  53.1596 254.8550 0001183  79.0577 281.0559 15.34413816 39355
STARLINK-35627          
1 66172U 25240AC  26182.00001156  .00036648  00000+0  12441-2 0  9997
2 66172  53.1583 256.5113 0001135  82.8214  17.6789 15.30181403  5758
STARLINK-35634          
1 66173U 25240AD  26181.61662242  .00015332  00000+0  46407-3 0  9990
2 66173  53.1586 256.4562 0001113  77.1114 283.0013 15.34394232 39308
GAOFEN-14 02            
1 66175U 25242A   26180.12465666  .00005345  00000+0  21419-3 0  9999
2 66175  97.4125 255.5750 0001846 133.5978 226.5413 15.25450102 37513
STARLINK-35363          
1 66178U 25243B   26181.97567505  .00037546  00000+0  11164-2 0  9995
2 66178  53.1614  78.6794 0000511  38.9221 321.1818 15.34412167 38002
STARLINK-35346          
1 66179U 25243C   26182.02188200  .00054851  00000+0  16214-2 0  9993
2 66179  53.1588  78.2604 0001651  67.8940 292.2238 15.34424239 38012
STARLINK-35335          
1 66180U 25243D   26182.00302639  .00048066  00000+0  14232-2 0  9996
2 66180  53.1598  78.8492 0000825 100.9847 259.1248 15.34432878 38003
STARLINK-35342          
1 66181U 25243E   26181.99040350  .00057475  00000+0  16971-2 0  9999
2 66181  53.1603  78.7725 0001112  98.7260 261.3868 15.34438978 38002
STARLINK-35333          
1 66182U 25243F   26181.97776348  .00044874  00000+0  13291-2 0  9992
2 66182  53.1616  78.6961 0001196 117.6493 242.4631 15.34452477 38007
STARLINK-35310          
1 66183U 25243G   26182.02396734  .00050499  00000+0  14939-2 0  9997
2 66183  53.1601  78.2733 0004980 185.7157 174.3789 15.34429951 38011
STARLINK-35317          
1 66184U 25243H   26182.02818976  .00030042  00000+0  89623-3 0  9990
2 66184  53.1607  78.3005 0001448  78.1202 281.9962 15.34416563 38016
STARLINK-35377          
1 66185U 25243J   26182.03029674  .00040743  00000+0  12097-2 0  9990
2 66185  53.1602  78.3163 0001496  73.8881 286.2286 15.34417801 38018
STARLINK-35365          
1 66186U 25243K   26181.99671713  .00030824  00000+0  91950-3 0  9997
2 66186  53.1603  78.8132 0000323  10.6787 349.4222 15.34405093 38004
STARLINK-35350          
1 66187U 25243L   26181.00002315 -.00002136  00000+0 -52153-4 0  9996
2 66187  53.1604  83.7244 0001093  76.3856  47.1852 15.34374053  5888
STARLINK-35041          
1 66188U 25243M   26181.98829584  .00049118  00000+0  14536-2 0  9999
2 66188  53.1614  78.7608 0001015  96.5234 263.5884 15.34438683 38005
STARLINK-34694          
1 66189U 25243N   26182.01134870  .00027069  00000+0  92250-3 0  9993
2 66189  53.1584  78.9009 0000813  65.2414 294.8671 15.30207706 38004
STARLINK-34863          
1 66190U 25243P   26182.16670139  .00075832  00000+0  22352-2 0  9990
2 66190  53.1582  78.2245 0001196  73.2932  41.6494 15.34367809  5783
STARLINK-35061          
1 66191U 25243Q   26182.18790935  .00044522  00000+0  13197-2 0  9999
2 66191  53.1609  77.8734 0001122  94.1149 265.9982 15.34431726 38030
STARLINK-34937          
1 66192U 25243R   26182.03872375  .00030087  00000+0  89823-3 0  9994
2 66192  53.1609  78.3670 0001282 100.9719 259.1428 15.34393599 38015
STARLINK-35197          
1 66193U 25243S   26182.06399786  .00043308  00000+0  14644-2 0  9996
2 66193  53.1585  78.5159 0000563  73.9320 286.1742 15.30232828 38013
STARLINK-35374          
1 66194U 25243T   26182.19655559  .00075825  00000+0  24217-2 0  9990
2 66194  53.1578  77.2145 0001431  65.3007 294.8143 15.31816535 38047
STARLINK-34813          
1 66195U 25243U   26182.02608400  .00045375  00000+0  13455-2 0  9995
2 66195  53.1596  78.2843 0001237 103.2168 256.8972 15.34411633 38016
STARLINK-35409          
1 66196U 25243V   26182.00818145  .00029160  00000+0  99255-3 0  9990
2 66196  53.1567  78.8786 0000992  85.4806 274.6308 15.30208073 38002
STARLINK-35259          
1 66197U 25243W   26182.00627125  .00047547  00000+0  14468-2 0  9998
2 66197  53.1583  78.8706 0001112  86.8830 273.2300 15.33572249 38009
STARLINK-35518          
1 66198U 25243X   26182.17363164  .00026097  00000+0  88949-3 0  9990
2 66198  53.1594  78.4857 0001387  94.6133 265.5026 15.30224180 38028
