OBJECT_NAME,OBJECT_ID,EPOCH,MEAN_MOTION,ECCENTRICITY,INCLINATION,RA_OF_ASC_NODE,ARG_OF_PERICENTER,MEAN_ANOMALY,EPHEMERIS_TYPE,CLASSIFICATION_TYPE,NORAD_CAT_ID,ELEMENT_SET_NO,REV_AT_EPOCH,BSTAR,MEAN_MOTION_DOT,MEAN_MOTION_DDOT
STARLINK-35624,2025-240W,2026-06-30T22:15:42.712416,15.34404367,.0001509,53.1593,254.8415,78.1837,281.9335,0,U,66166,999,3935,.97473E-3,.32705E-3,0
STARLINK-35641,2025-240X,2026-06-30T15:00:04.715712,15.34413955,.00013018,53.1571,256.5097,73.4510,286.6635,0,U,66167,999,3930,.73216241E-3,.24453E-3,0
STARLINK-35578,2025-240Y,2026-06-28T22:48:52.441344,15.30567110,.00026489,53.1592,265.9583,157.1984,202.9135,0,U,66168,999,3902,.61534817E-2,.188717E-2,0
STARLINK-35638,2025-240Z,2026-07-01T04:00:03.000096,15.34373847,.0001473,53.1584,255.7875,96.3200,177.1079,0,U,66169,999,585,.22071E-2,.74878E-3,0
STARLINK-35585,2025-240AA,2026-06-30T11:58:31.508256,15.34393269,.00010285,53.1572,257.1451,77.4492,282.6626,0,U,66170,999,3928,.78116228E-3,.26103E-3,0
STARLINK-35606,2025-240AB,2026-06-30T22:18:44.356320,15.34413816,.0001183,53.1596,254.8550,79.0577,281.0559,0,U,66171,999,3935,.10838E-2,.36435E-3,0
STARLINK-35627,2025-240AC,2026-07-01T00:00:00.998784,15.30181403,.0001135,53.1583,256.5113,82.8214,17.6789,0,U,66172,999,575,.12441E-2,.36648E-3,0
STARLINK-35634,2025-240AD,2026-06-30T14:47:56.177088,15.34394232,.00011131,53.1586,256.4562,77.1114,283.0013,0,U,66173,999,3930,.46406502E-3,.15332E-3,0
GAOFEN-14 02,2025-242A,2026-06-29T02:59:30.335424,15.25450102,.00018465,97.4125,255.5750,133.5978,226.5413,0,U,66175,999,3751,.21418921E-3,.5345E-4,0
STARLINK-35363,2025-243B,2026-06-30T23:24:58.324320,15.34412167,.0000511,53.1614,78.6794,38.9221,321.1818,0,U,66178,999,3800,.11164E-2,.37546E-3,0
STARLINK-35346,2025-243C,2026-07-01T00:31:30.604800,15.34424239,.0001651,53.1588,78.2604,67.8940,292.2238,0,U,66179,999,3801,.16214E-2,.54851E-3,0
STARLINK-35335,2025-243D,2026-07-01T00:04:21.480096,15.34432878,.0000825,53.1598,78.8492,100.9847,259.1248,0,U,66180,999,3800,.14232E-2,.48066E-3,0
STARLINK-35342,2025-243E,2026-06-30T23:46:10.862400,15.34438978,.0001112,53.1603,78.7725,98.7260,261.3868,0,U,66181,999,3800,.16971E-2,.57475E-3,0
STARLINK-35333,2025-243F,2026-06-30T23:27:58.764672,15.34452477,.0001196,53.1616,78.6961,117.6493,242.4631,0,U,66182,999,3800,.13291E-2,.44874E-3,0
STARLINK-35310,2025-243G,2026-07-01T00:34:30.778176,15.34429951,.000498,53.1601,78.2733,185.7157,174.3789,0,U,66183,999,3801,.14939E-2,.50499E-3,0
STARLINK-35317,2025-243H,2026-07-01T00:40:35.595264,15.34416563,.0001448,53.1607,78.3005,78.1202,281.9962,0,U,66184,999,3801,.89623E-3,.30042E-3,0
STARLINK-35377,2025-243J,2026-07-01T00:43:37.638336,15.34417801,.0001496,53.1602,78.3163,73.8881,286.2286,0,U,66185,999,3801,.12097E-2,.40743E-3,0
STARLINK-35365,2025-243K,2026-06-30T23:55:16.360032,15.34405093,.0000323,53.1603,78.8132,10.6787,349.4222,0,U,66186,999,3800,.9195E-3,.30824E-3,0
STARLINK-35350,2025-243L,2026-06-30T00:00:02.000160,15.34374053,.00010935,53.1604,83.7244,76.3856,47.1852,0,U,66187,999,588,-.52152764E-4,-.2136E-4,0
STARLINK-35041,2025-243M,2026-06-30T23:43:08.760576,15.34438683,.0001015,53.1614,78.7608,96.5234,263.5884,0,U,66188,999,3800,.14536E-2,.49118E-3,0
STARLINK-34694,2025-243N,2026-07-01T00:16:20.527680,15.30207706,.0000813,53.1584,78.9009,65.2414,294.8671,0,U,66189,999,3800,.9225E-3,.27069E-3,0
STARLINK-34863,2025-243P,2026-07-01T04:00:03.000096,15.34367809,.0001196,53.1582,78.2245,73.2932,41.6494,0,U,66190,999,578,.22352E-2,.75832E-3,0
STARLINK-35061,2025-243Q,2026-07-01T04:30:35.367840,15.34431726,.0001122,53.1609,77.8734,94.1149,265.9982,0,U,66191,999,3803,.13197E-2,.44522E-3,0
STARLINK-34937,2025-243R,2026-07-01T00:55:45.732000,15.34393599,.0001282,53.1609,78.3670,100.9719,259.1428,0,U,66192,999,3801,.89823E-3,.30087E-3,0
STARLINK-35197,2025-243S,2026-07-01T01:32:09.415104,15.30232828,.0000563,53.1585,78.5159,73.9320,286.1742,0,U,66193,999,3801,.14644E-2,.43308E-3,0
STARLINK-35374,2025-243T,2026-07-01T04:43:02.402976,15.31816535,.0001431,53.1578,77.2145,65.3007,294.8143,0,U,66194,999,3804,.24217E-2,.75825E-3,0
STARLINK-34813,2025-243U,2026-07-01T00:37:33.657600,15.34411633,.0001237,53.1596,78.2843,103.2168,256.8972,0,U,66195,999,3801,.13455E-2,.45375E-3,0
STARLINK-35409,2025-243V,2026-07-01T00:11:46.877280,15.30208073,.0000992,53.1567,78.8786,85.4806,274.6308,0,U,66196,999,3800,.99255E-3,.2916E-3,0
STARLINK-35259,2025-243W,2026-07-01T00:09:01.836000,15.33572249,.0001112,53.1583,78.8706,86.8830,273.2300,0,U,66197,999,3800,.14468E-2,.47547E-3,0
STARLINK-35518,2025-243X,2026-07-01T04:10:01.773696,15.30224180,.0001387,53.1594,78.4857,94.6133,265.5026,0,U,66198,999,3802,.88949E-3,.26097E-3,0
